{"version": 0.6, "generator": "Overpass API 0.7.62.1 084b4234", "osm3s": {"timestamp_osm_base": "2024-06-25T18:34:06Z", "copyright": "The data included in this document is from www.openstreetmap.org. The data is made available under ODbL."}, "elements": [{"type": "node", "id": 252813961, "lat": 48.8332704, "lon": 2.3793744}, {"type": "node", "id": 677967537, "lat": 48.8598645, "lon": 2.3477284, "tags": {"addr:city": "Paris", "addr:country": "FR", "addr:housenumber": "60", "addr:street": "Rue des Lombards", "amenity": "nightclub", "check_date": "2024-02-04", "name": "Sunside Sunset", "name:fr": "Sunside", "outdoor_seating": "yes", "smoking": "no", "source": "cadastre-dgi-fr source : Direction G\u00e9n\u00e9rale des Imp\u00f4ts - Cadastre. Mise \u00e0 jour : 2010", "wheelchair": "limited", "wikidata": "Q3503965"}}, {"type": "node", "id": 677967538, "lat": 48.8598453, "lon": 2.3478047, "tags": {"addr:city": "Paris", "addr:country": "FR", "addr:housenumber": "58", "addr:street": "Rue des Lombards", "amenity": "nightclub", "check_date": "2024-02-04", "name": "Le Baiser Sal\u00e9", "name:fr": "Le Baiser Sal\u00e9", "smoking": "no", "source": "cadastre-dgi-fr source : Direction G\u00e9n\u00e9rale des Imp\u00f4ts - Cadastre. Mise \u00e0 jour : 2010", "wheelchair": "limited", "wikidata": "Q3220206"}}, {"type": "node", "id": 679480151, "lat": 48.8624042, "lon": 2.3372656, "tags": {"addr:city": "Paris", "addr:housenumber": "2", "addr:postcode": "75001", "addr:street": "Place du Palais Royal", "amenity": "nightclub", "name": "Le Cabaret", "source": "cadastre-dgi-fr source : Direction G\u00e9n\u00e9rale des Imp\u00f4ts - Cadastre. Mise \u00e0 jour : 2010"}}, {"type": "node", "id": 787318634, "lat": 48.8581486, "lon": 2.3886913}, {"type": "node", "id": 787336663, "lat": 48.8581474, "lon": 2.3886868}, {"type": "node", "id": 787346670, "lat": 48.8577971, "lon": 2.3886252}, {"type": "node", "id": 787349470, "lat": 48.8578423, "lon": 2.3888483}, {"type": "node", "id": 787357574, "lat": 48.8582085, "lon": 2.3886607}, {"type": "node", "id": 787380341, "lat": 48.8581629, "lon": 2.3884325}, {"type": "node", "id": 1020227152, "lat": 48.871312, "lon": 2.3736247, "tags": {"amenity": "nightclub", "contact:website": "http://www.la-java.fr/", "name": "La Java", "wikidata": "Q3209830", "wikipedia": "fr:La Java"}}, {"type": "node", "id": 1108414671, "lat": 48.8527871, "lon": 2.3462981, "tags": {"addr:city": "Paris", "addr:housenumber": "5", "addr:postcode": "75005", "addr:street": "Rue de la Huchette", "amenity": "nightclub", "check_date": "2024-03-16", "email": "huchette@aol.com", "image": "https://upload.wikimedia.org/wikipedia/commons/b/be/Le_Caveau_de_la_Huchette.jpg", "musical_instrument:piano": "yes", "name": "Caveau de la Huchette", "phone": "+33143266505", "source": "cadastre-dgi-fr source : Direction G\u00e9n\u00e9rale des Imp\u00f4ts - Cadastre. Mise \u00e0 jour : 2011", "website": "http://www.caveaudelahuchette.fr/", "wheelchair": "no", "wikidata": "Q517995", "wikipedia": "fr:Le Caveau de la Huchette"}}, {"type": "node", "id": 1252437598, "lat": 48.8730035, "lon": 2.3534809, "tags": {"amenity": "nightclub", "contact:city": "Paris", "contact:housenumber": "7,9", "contact:postcode": "75010", "contact:street": "Rue des Petites-\u00c9curies", "contact:website": "https://www.newmorning.com/", "name": "New Morning", "wikidata": "Q657624", "wikipedia": "fr:New Morning"}}, {"type": "node", "id": 1327901733, "lat": 48.8579096, "lon": 2.3888127, "tags": {"addr:housenumber": "4", "source": "cadastre-dgi-fr source : Direction G\u00e9n\u00e9rale des Imp\u00f4ts - Cadastre. Mise \u00e0 jour : 2011"}}, {"type": "node", "id": 1327901791, "lat": 48.8580735, "lon": 2.3887259, "tags": {"addr:housenumber": "2", "source": "cadastre-dgi-fr source : Direction G\u00e9n\u00e9rale des Imp\u00f4ts - Cadastre. Mise \u00e0 jour : 2011"}}, {"type": "node", "id": 1333895343, "lat": 48.8581855, "lon": 2.3885454, "tags": {"addr:housenumber": "8", "source": "cadastre-dgi-fr source : Direction G\u00e9n\u00e9rale des Imp\u00f4ts - Cadastre. Mise \u00e0 jour : 2011"}}, {"type": "node", "id": 1635047339, "lat": 48.8682496, "lon": 2.3663122, "tags": {"amenity": "nightclub", "check_date": "2024-02-02", "name": "Le Gibus", "wheelchair": "yes", "wikidata": "Q3223103", "wikipedia": "fr:Le Gibus"}}, {"type": "node", "id": 1803855315, "lat": 48.842109, "lon": 2.3213512, "tags": {"addr:housenumber": "24", "addr:street": "Rue de l'Arriv\u00e9e", "amenity": "nightclub", "entrance": "yes", "name": "MixClub", "website": "https://www.mixclub.fr/"}}, {"type": "node", "id": 1990799144, "lat": 48.8730337, "lon": 2.3920347, "tags": {"amenity": "nightclub", "contact:city": "Paris", "contact:housenumber": "46", "contact:postcode": "75020", "contact:street": "Rue des Rigoles", "name": "MilOnda 1905", "opening_hours": "We 21:30-02:00", "source": "cadastre-dgi-fr source : Direction G\u00e9n\u00e9rale des Imp\u00f4ts - Cadastre. Mise \u00e0 jour : 2012"}}, {"type": "node", "id": 2003145863, "lat": 48.8591148, "lon": 2.3478378, "tags": {"addr:city": "Paris", "addr:housenumber": "14", "addr:postcode": "75001", "addr:street": "Rue Saint-Denis", "amenity": "nightclub", "name": "Le Klub", "phone": "+33 1 42 71 49 30", "smoking": "no", "website": "http://www.leklub-paris.com", "wheelchair": "no"}}, {"type": "node", "id": 2008569581, "lat": 48.8305978, "lon": 2.3143161, "tags": {"amenity": "nightclub", "name": "Soleil Club", "smoking": "no", "wheelchair": "yes"}}, {"type": "node", "id": 2180116943, "lat": 48.8393841, "lon": 2.3708171, "tags": {"amenity": "nightclub", "name": "911", "opening_hours": "Fr-Sa 20:00-07:00", "website": "https://www.villagerusse.fr/911-paris"}}, {"type": "node", "id": 3058148641, "lat": 48.8540169, "lon": 2.3721601, "tags": {"addr:housenumber": "9", "addr:postcode": "75011", "addr:street": "Rue de Lappe", "amenity": "nightclub", "contact:city": "Paris", "contact:housenumber": "9", "contact:postcode": "75011", "contact:street": "Rue de Lappe", "email": "balajoparis@gmail.com", "name": "Le Balajo", "phone": "+33 1 47 00 07 87", "website": "https://www.balajo.fr/", "wheelchair": "limited", "wikidata": "Q16626681"}}, {"type": "node", "id": 3072964545, "lat": 48.8586675, "lon": 2.3691284, "tags": {"addr:city": "Paris", "addr:housenumber": "50", "addr:postcode": "75011", "addr:street": "Rue Saint-Sabin", "amenity": "nightclub", "check_date": "2024-04-06", "name": "Les Caves", "smoking": "isolated", "website": "https://www.lescavessaintsabin.fr/"}}, {"type": "node", "id": 3079788462, "lat": 48.8535911, "lon": 2.3757106, "tags": {"amenity": "nightclub", "check_date:opening_hours": "2023-03-26", "contact:city": "Paris", "contact:email": "contact@badaboum.paris", "contact:housenumber": "2 bis", "contact:postcode": "75011", "contact:street": "Rue des Taillandiers", "contact:website": "https://badaboum.paris/", "name": "Badaboum", "opening_hours:covid19": "off", "opening_hours:signed": "no"}}, {"type": "node", "id": 3079806020, "lat": 48.8693197, "lon": 2.3050539, "tags": {"alt_name": "Zig Zag Club", "amenity": "nightclub", "contact:email": "contact@zigzagclub.fr", "contact:phone": "+33 6 35 25 03 61", "contact:website": "http://zigzagclub.fr/", "name": "Zigzag Club", "toilets:wheelchair": "no", "wheelchair": "no"}}, {"type": "node", "id": 3197173507, "lat": 48.861244, "lon": 2.3676094, "tags": {"addr:city": "Paris", "addr:housenumber": "101", "addr:postcode": "75011", "addr:street": "Rue Amelot", "amenity": "nightclub", "contact:website": "https://panicroomparis.com/", "name": "Panic Room"}}, {"type": "node", "id": 3429417881, "lat": 48.8652653, "lon": 2.3511582, "tags": {"amenity": "nightclub", "lgbtq:men": "only", "name": "L'Impact", "smoking": "no", "wheelchair": "no"}}, {"type": "node", "id": 3700128152, "lat": 48.8332618, "lon": 2.379415}, {"type": "node", "id": 3700128153, "lat": 48.8332799, "lon": 2.3794486}, {"type": "node", "id": 3700128155, "lat": 48.8333121, "lon": 2.3794366}, {"type": "node", "id": 3700128156, "lat": 48.8333223, "lon": 2.3793067}, {"type": "node", "id": 3700128158, "lat": 48.8334494, "lon": 2.3791317}, {"type": "node", "id": 3700128159, "lat": 48.8334938, "lon": 2.3790787}, {"type": "node", "id": 3700128160, "lat": 48.8335249, "lon": 2.379173}, {"type": "node", "id": 3700128161, "lat": 48.8335351, "lon": 2.3790568}, {"type": "node", "id": 3700128162, "lat": 48.8335552, "lon": 2.3790745}, {"type": "node", "id": 3700128163, "lat": 48.8335539, "lon": 2.3791168}, {"type": "node", "id": 3702659241, "lat": 48.8731229, "lon": 2.3352463, "tags": {"amenity": "nightclub", "check_date": "2023-06-19", "name": "Club Haussman"}}, {"type": "node", "id": 3703077368, "lat": 48.8520094, "lon": 2.3545532, "tags": {"amenity": "nightclub", "name": "Taken-Club", "wheelchair": "no"}}, {"type": "node", "id": 3804195354, "lat": 48.872551, "lon": 2.3041747, "tags": {"amenity": "nightclub", "contact:city": "Paris", "contact:housenumber": "13", "contact:phone": "+33 1 53 53 86 00", "contact:postcode": "75008", "contact:street": "Rue de Berri", "contact:website": "http://thepenthouseclubparis.com", "name": "The Penthouse club Paris", "opening_hours": "22:00-24:00,00:00-05:00"}}, {"type": "node", "id": 3846860861, "lat": 48.8700709, "lon": 2.3549451, "tags": {"amenity": "nightclub", "contact:city": "Paris", "contact:housenumber": "8", "contact:phone": "+33 1 42 08 06 75", "contact:postcode": "75010", "contact:street": "Boulevard de Strasbourg", "contact:website": "https://www.leglobo.fr/", "name": "Le Globo"}}, {"type": "node", "id": 4123949589, "lat": 48.8415527, "lon": 2.3243426, "tags": {"amenity": "nightclub", "name": "Le New Monocle"}}, {"type": "node", "id": 4426841270, "lat": 48.8810262, "lon": 2.3360255, "tags": {"amenity": "nightclub", "check_date": "2024-02-13", "facebook": "https://fr-fr.facebook.com/chezmouneofficiel", "name": "Chez Moune", "source": "survey"}}, {"type": "node", "id": 4527150300, "lat": 48.8716775, "lon": 2.3060855, "tags": {"amenity": "nightclub", "name": "Chez R\u00e9gine", "wikidata": "Q1071470"}}, {"type": "node", "id": 4537714186, "lat": 48.8645151, "lon": 2.3567491, "tags": {"addr:city": "Paris", "addr:housenumber": "13", "addr:postcode": "75003", "addr:street": "Rue au Maire", "amenity": "nightclub", "contact:facebook": "https://www.facebook.com/pages/Le-Tango-La-Bo%C3%AEte-%C3%A0-Frissons/164605016889712", "email": "contact@tangoparis.com", "lgbtq": "primary", "name": "Le Tango", "opening_hours": "Fr-Sa 22:30-05:00; Su 18:00-23:00", "phone": "+33 1 48 87 25 71", "website": "https://tangoparis.com/", "wikidata": "Q3227521"}}, {"type": "node", "id": 4680082601, "lat": 48.8520409, "lon": 2.3346195, "tags": {"addr:housenumber": "15", "addr:postcode": "75006", "addr:street": "Rue Princesse", "amenity": "nightclub", "name": "Castel", "phone": "+ 33 1 40 51 52 80", "website": "https://castel.paris/", "wikidata": "Q2963161"}}, {"type": "node", "id": 4903397461, "lat": 48.8531013, "lon": 2.3313953, "tags": {"amenity": "nightclub", "contact:city": "Paris", "contact:housenumber": "1", "contact:postcode": "75006", "contact:street": "Rue du Sabot", "email": "contact@rive-gauche.paris", "name": "Le Rive Gauche", "phone": "+33 1 42 22 51 70", "source": "official website", "website": "https://rive-gauche.paris/"}}, {"type": "node", "id": 5001826042, "lat": 48.8537254, "lon": 2.3357876, "tags": {"addr:city": "Paris", "addr:housenumber": "3", "addr:postcode": "75006", "addr:street": "Passage de la Petite Boucherie", "amenity": "nightclub", "contact:city": "Paris 6eme Arrondissement", "contact:housenumber": "3", "contact:phone": "+33 1 46 33 19 89", "contact:postcode": "75006", "contact:street": "Passage De La Petite Boucherie", "description": "Bar musical Latino.", "name": "La Pe\u00f1a"}}, {"type": "node", "id": 5239868124, "lat": 48.8724362, "lon": 2.3114655, "tags": {"amenity": "nightclub", "contact:city": "Paris", "contact:housenumber": "105", "contact:phone": "+33 1 42 89 41 66", "contact:postcode": "75008", "contact:street": "Rue du Faubourg Saint-Honor\u00e9", "contact:website": "http://angie-paris.com", "name": "Angie", "opening_hours": "Fr-Sa 00:00-05:00"}}, {"type": "node", "id": 5552694364, "lat": 48.8705803, "lon": 2.3473378, "tags": {"amenity": "nightclub", "contact:city": "Paris", "contact:email": "infos@rexclub.com", "contact:facebook": "https://www.facebook.com/rexclubparis/events", "contact:housenumber": "5", "contact:phone": "+33 142 361 096", "contact:postcode": "75002", "contact:street": "Boulevard Poissonni\u00e8re", "contact:website": "https://rexclub.com", "name": "Rex Club", "opening_hours": "We-Sa 23:55-07:00"}}, {"type": "node", "id": 5848090176, "lat": 48.8335146, "lon": 2.3790641}, {"type": "node", "id": 5848090177, "lat": 48.8335411, "lon": 2.3791472}, {"type": "node", "id": 5848090178, "lat": 48.8335581, "lon": 2.3790943}, {"type": "node", "id": 5848090179, "lat": 48.8335462, "lon": 2.3790614}, {"type": "node", "id": 5848090180, "lat": 48.8332644, "lon": 2.379395}, {"type": "node", "id": 5848090181, "lat": 48.8332959, "lon": 2.3794443}, {"type": "node", "id": 5848090182, "lat": 48.8332703, "lon": 2.3794449}, {"type": "node", "id": 5848090183, "lat": 48.8332637, "lon": 2.3794332}, {"type": "node", "id": 6297628586, "lat": 48.8327374, "lon": 2.3361176, "tags": {"amenity": "nightclub", "contact:city": "Paris", "contact:housenumber": "3 bis", "contact:postcode": "75014", "contact:street": "Rue de la Tombe Issoire", "name": "Pr\u00e9 Milonga de la Passerelle", "opening_hours": "Su 13:00-17:00"}}, {"type": "node", "id": 6433614490, "lat": 48.8409186, "lon": 2.3699765, "tags": {"addr:city": "Paris", "addr:housenumber": "33", "addr:street": "Quai d'Austerlitz", "amenity": "nightclub", "name": "Debonair Caf\u00e9"}}, {"type": "node", "id": 7953966751, "lat": 48.8257265, "lon": 2.3740128, "tags": {"amenity": "nightclub", "name": "Le Saphir"}}, {"type": "node", "id": 8459561473, "lat": 48.8614498, "lon": 2.3428343, "tags": {"amenity": "nightclub", "contact:city": "Paris", "contact:housenumber": "84", "contact:phone": "+33 1 42 61 03 79", "contact:postcode": "75001", "contact:street": "Rue Saint-Honor\u00e9", "min_age": "18", "name": "La Marquise", "smoking": "no", "wheelchair": "no"}}, {"type": "node", "id": 8662528316, "lat": 48.8846063, "lon": 2.3229755, "tags": {"amenity": "nightclub", "min_age": "18", "name": "Cris et Chuchotements"}}, {"type": "node", "id": 8751245019, "lat": 48.8669668, "lon": 2.3760623, "tags": {"amenity": "nightclub", "name": "1999"}}, {"type": "node", "id": 9176582743, "lat": 48.8355557, "lon": 2.3765802, "tags": {"addr:city": "Paris", "addr:housenumber": "7", "addr:postcode": "75013", "addr:street": "Port de la Gare", "amenity": "nightclub", "contact:website": "https://petitbain.org/", "description": "Salle de concerts", "name": "Petit Bain"}}, {"type": "node", "id": 9177049218, "lat": 48.8834387, "lon": 2.3697329, "tags": {"amenity": "nightclub", "name": "Mini-club", "survey:date": "2021-10-16", "website": "https://larotondestalingrad.com/"}}, {"type": "node", "id": 9556250419, "lat": 48.8548485, "lon": 2.3709046, "tags": {"amenity": "nightclub", "check_date:opening_hours": "2023-03-26", "name": "15 Club", "opening_hours:signed": "no"}}, {"type": "node", "id": 9669324446, "lat": 48.8621056, "lon": 2.3424235, "tags": {"addr:city": "Paris", "addr:housenumber": "47", "addr:postcode": "75001", "addr:street": "Rue Berger", "amenity": "nightclub", "contact:city": "Paris", "contact:housenumber": "47", "contact:postcode": "75001", "contact:street": "Rue Berger", "name": "Podium", "smoking": "no"}}, {"type": "node", "id": 9778082484, "lat": 48.8536558, "lon": 2.3367102, "tags": {"addr:city": "Paris", "addr:housenumber": "25", "addr:postcode": "75006", "addr:street": "Rue de Buci", "amenity": "nightclub", "name": "Club Paradisio", "opening_hours": "We-Sa 23:30-05:00", "operator": "Beaumarly", "website": "https://club-paradisio.com"}}, {"type": "node", "id": 9797551085, "lat": 48.8564548, "lon": 2.3564458, "tags": {"amenity": "nightclub", "description": "Jazz Club & Bar", "live_music": "yes", "music": "jazz", "name": "38Riv", "smoking": "no", "website": "https://www.38riv.com/", "wheelchair": "limited"}}, {"type": "node", "id": 9861508352, "lat": 48.8389119, "lon": 2.3705397, "tags": {"amenity": "nightclub", "name": "La Suite 34", "opening_hours": "Th-Su 19:00-02:00", "website": "https://lasuite34paris.fr"}}, {"type": "node", "id": 9862863074, "lat": 48.8407632, "lon": 2.3252454, "tags": {"amenity": "nightclub", "description": "Club libertin", "min_age": "18", "name": "2+2", "opening_hours": "12:00-19:00,20:00-06:00", "website": "https://www.2plus2.fr"}}, {"type": "node", "id": 9942465422, "lat": 48.8809322, "lon": 2.3356292, "tags": {"amenity": "nightclub", "name": "Pigalle Country Club", "opening_hours": "Su-We 18:00-03:00; Th-Sa 18:00-05:00", "wheelchair": "limited"}}, {"type": "node", "id": 9999404894, "lat": 48.8545508, "lon": 2.3379538, "tags": {"addr:city": "Paris", "addr:housenumber": "62", "addr:postcode": "75006", "addr:street": "Rue Mazarine", "amenity": "nightclub", "name": "Pamela", "opening_hours": "Fr-Sa 20:00-06:00"}}, {"type": "node", "id": 10048944671, "lat": 48.8471724, "lon": 2.347893, "tags": {"amenity": "nightclub", "name": "La Pomme d'\u00c8ve", "opening_hours": "Mo 12:00-02:00, We-Fr 20:00-02:00, Sa 16:00-02:00, Su 22:00-02:00", "website": "https://lapommedeve.com"}}, {"type": "node", "id": 10178083072, "lat": 48.8646531, "lon": 2.334615, "tags": {"amenity": "nightclub", "name": "Jangal", "opening_hours": "Th-Sa 23:45-06:00", "website": "https://jangalparis.com/"}}, {"type": "node", "id": 10203138718, "lat": 48.8612065, "lon": 2.3435402, "tags": {"amenity": "nightclub", "contact:city": "Paris", "contact:housenumber": "87", "contact:postcode": "75001", "contact:street": "Rue Saint-Honor\u00e9", "lgbtq": "primary", "name": "Next", "smoking": "no", "wheelchair": "no"}}, {"type": "node", "id": 10720791065, "lat": 48.8667393, "lon": 2.3366271, "tags": {"addr:city": "Paris", "addr:housenumber": "33", "addr:postcode": "75001", "addr:street": "Rue des Petits Champs", "amenity": "nightclub", "lgbtq": "primary", "name": "L'\u0152il", "phone": "+33 1 42 61 99 22"}}, {"type": "node", "id": 10976173526, "lat": 48.8580378, "lon": 2.3884984}, {"type": "node", "id": 10976173527, "lat": 48.8579709, "lon": 2.3885336}, {"type": "node", "id": 10976173529, "lat": 48.8580544, "lon": 2.3885753}, {"type": "node", "id": 10976173530, "lat": 48.8579888, "lon": 2.388612}, {"type": "way", "id": 63638493, "nodes": [787380341, 10976173526, 10976173529, 10976173530, 10976173527, 787346670, 787349470, 1327901733, 1327901791, 787336663, 787318634, 787357574, 1333895343, 787380341], "tags": {"amenity": "nightclub", "building": "apartments", "building:levels": "2", "name": "Pan Piper", "opening_hours": "Mo 00:00-02:00; Fr 19:30-24:00; Sa,Su 00:00-02:00,19:30-24:00", "phone": "+33 1 40094130", "smoking": "dedicated", "source": "Bing + cadastre-dgi-fr source : Direction G\u00e9n\u00e9rale des Imp\u00f4ts - Cadastre. Mise \u00e0 jour : 2010", "website": "https://www.pan-piper.com/", "wheelchair": "yes"}}, {"type": "way", "id": 366020273, "nodes": [252813961, 3700128156, 3700128158, 3700128159, 5848090176, 3700128161, 5848090179, 3700128162, 5848090178, 3700128163, 5848090177, 3700128160, 3700128155, 5848090181, 3700128153, 5848090182, 5848090183, 3700128152, 5848090180, 252813961], "tags": {"amenity": "nightclub", "building": "boat", "name": "Le bateau phare", "old_name": "Batofar", "website": "https://www.lebateauphare.co/", "wikidata": "Q2365441", "wikipedia": "fr:Batofar"}}]}